ISS (ZARYA)             
1 25544U 98067A   25071.23023006  .00013274  00000+0  24077-3 0  9990
2 25544  51.6371  67.2508 0006387  13.3406  82.7568 15.49915510500128
ISS (NAUKA)             
1 49044U 21066A   25070.82617580  .00012602  00000+0  22911-3 0  9995
2 49044  51.6353  69.2581 0006391  10.5433 349.5688 15.49902436205959
FREGAT DEB              
1 49271U 11037PF  25067.67566116  .00008999  00000+0  19934-1 0  9994
2 49271  51.6599 301.3428 0908550 335.1230  20.8289 12.27890519167552
CSS (WENTIAN)           
1 53239U 22085A   25070.50895518  .00018315  00000+0  21253-3 0  9997
2 53239  41.4636 255.4627 0006959 324.3471  35.6902 15.61317540214940
CSS (MENGTIAN)          
1 54216U 22143A   25070.50895518  .00018315  00000+0  21253-3 0  9998
2 54216  41.4636 255.4627 0006959 324.3471  35.6902 15.61317540134790
CYGNUS NG-21            
1 60378U 24139A   25070.82617580  .00012602  00000+0  22911-3 0  9992
2 60378  51.6353  69.2581 0006391  10.5433 349.5688 15.49902436 33861
SOYUZ-MS 26             
1 61043U 24162A   25070.82617580  .00012602  00000+0  22911-3 0  9998
2 61043  51.6353  69.2581 0006391  10.5433 349.5688 15.49902436499856
CREW DRAGON 9           
1 61447U 24178A   25070.82617580  .00012602  00000+0  22911-3 0  9993
2 61447  51.6353  69.2581 0006391  10.5433 349.5688 15.49902436 25253
SHENZHOU-19 (SZ-19)     
1 61683U 24194A   25070.50895518  .00018315  00000+0  21253-3 0  9992
2 61683  41.4636 255.4627 0006959 324.3471  35.6902 15.61317540220871
TIANZHOU-8              
1 61983U 24211A   25070.50895518  .00018315  00000+0  21253-3 0  9995
2 61983  41.4636 255.4627 0006959 324.3471  35.6902 15.61317540 16293
PROGRESS-MS 29          
1 62030U 24215A   25070.82617580  .00012602  00000+0  22911-3 0  9994
2 62030  51.6353  69.2581 0006391  10.5433 349.5688 15.49902436 14104
1998-067XC              
1 62296U 98067XC  25070.97766679  .00375067  00000+0  18069-2 0  9999
2 62296  51.6251  59.7356 0006689  21.9121 338.2165 15.81002032 14484
YOMOGI                  
1 62298U 98067XE  25070.26746551  .00346984  00000+0  16367-2 0  9995
2 62298  51.6231  63.2367 0007148  20.3391 339.7894 15.81528891 14378
PROGRESS-MS 30          
1 63129U 25041B   25070.82617580  .00012602  00000+0  22911-3 0  9992
2 63129  51.6353  69.2581 0006391  10.5433 349.5688 15.49902436  1627
